IDEFIX & ARIANE 42P R/B 
1 27422U 02021B   26050.80602666  .00000256  00000+0  11396-3 0  9994
2 27422  98.5855 349.6281 0010739 238.0664 121.9475 14.31012476241466
AQUA                    
1 27424U 02022A   26051.17489300  .00000890  00000+0  18763-3 0  9995
2 27424  98.4144  18.2254 0001086  47.3739  74.3043 14.61930174266170
CZ-4B R/B               
1 27432U 02024C   26051.10023406  .00000036  00000+0  41224-4 0  9991
2 27432  98.8881 104.5922 0051082  73.5010 316.5461 14.14544411226754
MIDORI II (ADEOS-II)    
1 27597U 02056A   26050.88239421  .00000252  00000+0  11672-3 0  9991
2 27597  98.7739   9.2407 0002102  67.3104 292.8299 14.29270910207750
H-2A R/B                
1 27601U 02056E   26050.91269546  .00000244  00000+0  10008-3 0  9995
2 27601  98.3171  11.9587 0069417 213.8141 213.0587 14.33747648211563
CZ-4B R/B               
1 28059U 03049C   26050.98517203  .00000388  00000+0  10084-3 0  9992
2 28059  98.6862  45.1981 0047047 286.2755  73.3268 14.55000453184021
CZ-2C R/B               
1 28222U 04012C   26051.13547425  .00044709  00000+0  50211-3 0  9993
2 28222  97.7269 114.7916 0014706  19.0803 341.1002 15.62376334201538
SL-16 R/B               
1 28353U 04021B   26051.06174311  .00000275  00000+0  16804-3 0  9990
2 28353  70.9989 269.4884 0003272  50.9611 309.1802 14.14596862120341
CZ-4B R/B               
1 28415U 04035C   26051.04160857  .00007398  00000+0  26335-3 0  9995
2 28415  97.3522  85.4978 0033229  34.1913 326.1457 15.28716386177214
CZ-2C R/B               
1 28480U 04046B   26051.16615494  .00000101  00000+0  52851-4 0  9992
2 28480  98.1992 327.2393 0138796 206.2785 153.1310 14.26985558106009
ARIANE 5 R/B            
1 28499U 04049H   26051.04933568  .00000742  00000+0  88109-4 0  9993
2 28499  98.2596 218.8496 0085105  48.8623 311.9895 14.85229355143177
CZ-2D R/B               
1 28738U 05024B   26050.99708169  .00035637  00000+0  46657-3 0  9995
2 28738  97.3605  65.5168 0007624  89.1305 271.0825 15.58492962137025
