CCSDS_OMM_VERS = 2.0
CREATION_DATE  = 
ORIGINATOR     = 

OBJECT_NAME    = IDEFIX & ARIANE 42P R/B
OBJECT_ID      = 2002-021B
CENTER_NAME    = EARTH
REF_FRAME      = TEME
TIME_SYSTEM    = UTC
MEAN_ELEMENT_THEORY = SGP/SGP4

EPOCH          = 2026-02-19T19:20:40.703424
MEAN_MOTION    = 14.31012476
ECCENTRICITY   = .00107399
INCLINATION    = 98.5855
RA_OF_ASC_NODE = 349.6281
ARG_OF_PERICENTER = 238.0664
MEAN_ANOMALY   = 121.9475

EPHEMERIS_TYPE = 0
CLASSIFICATION_TYPE = U
NORAD_CAT_ID   = 27422
ELEMENT_SET_NO = 999
REV_AT_EPOCH   = 24146
BSTAR          = .11396033E-3
MEAN_MOTION_DOT = .256E-5
MEAN_MOTION_DDOT = 0

CCSDS_OMM_VERS = 2.0
CREATION_DATE  = 
ORIGINATOR     = 

OBJECT_NAME    = AQUA
OBJECT_ID      = 2002-022A
CENTER_NAME    = EARTH
REF_FRAME      = TEME
TIME_SYSTEM    = UTC
MEAN_ELEMENT_THEORY = SGP/SGP4

EPOCH          = 2026-02-20T04:11:50.755200
MEAN_MOTION    = 14.61930174
ECCENTRICITY   = .0001086
INCLINATION    = 98.4144
RA_OF_ASC_NODE = 18.2254
ARG_OF_PERICENTER = 47.3739
MEAN_ANOMALY   = 74.3043

EPHEMERIS_TYPE = 0
CLASSIFICATION_TYPE = U
NORAD_CAT_ID   = 27424
ELEMENT_SET_NO = 999
REV_AT_EPOCH   = 26617
BSTAR          = .18763E-3
MEAN_MOTION_DOT = .89E-5
MEAN_MOTION_DDOT = 0

CCSDS_OMM_VERS = 2.0
CREATION_DATE  = 
ORIGINATOR     = 

OBJECT_NAME    = CZ-4B R/B
OBJECT_ID      = 2002-024C
CENTER_NAME    = EARTH
REF_FRAME      = TEME
TIME_SYSTEM    = UTC
MEAN_ELEMENT_THEORY = SGP/SGP4

EPOCH          = 2026-02-20T02:24:20.222784
MEAN_MOTION    = 14.14544411
ECCENTRICITY   = .0051082
INCLINATION    = 98.8881
RA_OF_ASC_NODE = 104.5922
ARG_OF_PERICENTER = 73.5010
MEAN_ANOMALY   = 316.5461

EPHEMERIS_TYPE = 0
CLASSIFICATION_TYPE = U
NORAD_CAT_ID   = 27432
ELEMENT_SET_NO = 999
REV_AT_EPOCH   = 22675
BSTAR          = .41224E-4
MEAN_MOTION_DOT = .36E-6
MEAN_MOTION_DDOT = 0

CCSDS_OMM_VERS = 2.0
CREATION_DATE  = 
ORIGINATOR     = 

OBJECT_NAME    = MIDORI II (ADEOS-II)
OBJECT_ID      = 2002-056A
CENTER_NAME    = EARTH
REF_FRAME      = TEME
TIME_SYSTEM    = UTC
MEAN_ELEMENT_THEORY = SGP/SGP4

EPOCH          = 2026-02-19T21:10:38.859744
MEAN_MOTION    = 14.29270910
ECCENTRICITY   = .0002102
INCLINATION    = 98.7739
RA_OF_ASC_NODE = 9.2407
ARG_OF_PERICENTER = 67.3104
MEAN_ANOMALY   = 292.8299

EPHEMERIS_TYPE = 0
CLASSIFICATION_TYPE = U
NORAD_CAT_ID   = 27597
ELEMENT_SET_NO = 999
REV_AT_EPOCH   = 20775
BSTAR          = .11672E-3
MEAN_MOTION_DOT = .252E-5
MEAN_MOTION_DDOT = 0

CCSDS_OMM_VERS = 2.0
CREATION_DATE  = 
ORIGINATOR     = 

OBJECT_NAME    = H-2A R/B
OBJECT_ID      = 2002-056E
CENTER_NAME    = EARTH
REF_FRAME      = TEME
TIME_SYSTEM    = UTC
MEAN_ELEMENT_THEORY = SGP/SGP4

EPOCH          = 2026-02-19T21:54:16.887744
MEAN_MOTION    = 14.33747648
ECCENTRICITY   = .0069417
INCLINATION    = 98.3171
RA_OF_ASC_NODE = 11.9587
ARG_OF_PERICENTER = 213.8141
MEAN_ANOMALY   = 213.0587

EPHEMERIS_TYPE = 0
CLASSIFICATION_TYPE = U
NORAD_CAT_ID   = 27601
ELEMENT_SET_NO = 999
REV_AT_EPOCH   = 21156
BSTAR          = .10008E-3
MEAN_MOTION_DOT = .244E-5
MEAN_MOTION_DDOT = 0

CCSDS_OMM_VERS = 2.0
CREATION_DATE  = 
ORIGINATOR     = 

OBJECT_NAME    = CZ-4B R/B
OBJECT_ID      = 2003-049C
CENTER_NAME    = EARTH
REF_FRAME      = TEME
TIME_SYSTEM    = UTC
MEAN_ELEMENT_THEORY = SGP/SGP4

EPOCH          = 2026-02-19T23:38:38.863392
MEAN_MOTION    = 14.55000453
ECCENTRICITY   = .0047047
INCLINATION    = 98.6862
RA_OF_ASC_NODE = 45.1981
ARG_OF_PERICENTER = 286.2755
MEAN_ANOMALY   = 73.3268

EPHEMERIS_TYPE = 0
CLASSIFICATION_TYPE = U
NORAD_CAT_ID   = 28059
ELEMENT_SET_NO = 999
REV_AT_EPOCH   = 18402
BSTAR          = .10084E-3
MEAN_MOTION_DOT = .388E-5
MEAN_MOTION_DDOT = 0

CCSDS_OMM_VERS = 2.0
CREATION_DATE  = 
ORIGINATOR     = 

OBJECT_NAME    = CZ-2C R/B
OBJECT_ID      = 2004-012C
CENTER_NAME    = EARTH
REF_FRAME      = TEME
TIME_SYSTEM    = UTC
MEAN_ELEMENT_THEORY = SGP/SGP4

EPOCH          = 2026-02-20T03:15:04.975200
MEAN_MOTION    = 15.62376334
ECCENTRICITY   = .0014706
INCLINATION    = 97.7269
RA_OF_ASC_NODE = 114.7916
ARG_OF_PERICENTER = 19.0803
MEAN_ANOMALY   = 341.1002

EPHEMERIS_TYPE = 0
CLASSIFICATION_TYPE = U
NORAD_CAT_ID   = 28222
ELEMENT_SET_NO = 999
REV_AT_EPOCH   = 20153
BSTAR          = .50211E-3
MEAN_MOTION_DOT = .44709E-3
MEAN_MOTION_DDOT = 0

CCSDS_OMM_VERS = 2.0
CREATION_DATE  = 
ORIGINATOR     = 

OBJECT_NAME    = SL-16 R/B
OBJECT_ID      = 2004-021B
CENTER_NAME    = EARTH
REF_FRAME      = TEME
TIME_SYSTEM    = UTC
MEAN_ELEMENT_THEORY = SGP/SGP4

EPOCH          = 2026-02-20T01:28:54.604704
MEAN_MOTION    = 14.14596862
ECCENTRICITY   = .0003272
INCLINATION    = 70.9989
RA_OF_ASC_NODE = 269.4884
ARG_OF_PERICENTER = 50.9611
MEAN_ANOMALY   = 309.1802

EPHEMERIS_TYPE = 0
CLASSIFICATION_TYPE = U
NORAD_CAT_ID   = 28353
ELEMENT_SET_NO = 999
REV_AT_EPOCH   = 12034
BSTAR          = .16804E-3
MEAN_MOTION_DOT = .275E-5
MEAN_MOTION_DDOT = 0

CCSDS_OMM_VERS = 2.0
CREATION_DATE  = 
ORIGINATOR     = 

OBJECT_NAME    = CZ-4B R/B
OBJECT_ID      = 2004-035C
CENTER_NAME    = EARTH
REF_FRAME      = TEME
TIME_SYSTEM    = UTC
MEAN_ELEMENT_THEORY = SGP/SGP4

EPOCH          = 2026-02-20T00:59:54.980448
MEAN_MOTION    = 15.28716386
ECCENTRICITY   = .0033229
INCLINATION    = 97.3522
RA_OF_ASC_NODE = 85.4978
ARG_OF_PERICENTER = 34.1913
MEAN_ANOMALY   = 326.1457

EPHEMERIS_TYPE = 0
CLASSIFICATION_TYPE = U
NORAD_CAT_ID   = 28415
ELEMENT_SET_NO = 999
REV_AT_EPOCH   = 17721
BSTAR          = .26335E-3
MEAN_MOTION_DOT = .7398E-4
MEAN_MOTION_DDOT = 0

CCSDS_OMM_VERS = 2.0
CREATION_DATE  = 
ORIGINATOR     = 

OBJECT_NAME    = CZ-2C R/B
OBJECT_ID      = 2004-046B
CENTER_NAME    = EARTH
REF_FRAME      = TEME
TIME_SYSTEM    = UTC
MEAN_ELEMENT_THEORY = SGP/SGP4

EPOCH          = 2026-02-20T03:59:15.786816
MEAN_MOTION    = 14.26985558
ECCENTRICITY   = .0138796
INCLINATION    = 98.1992
RA_OF_ASC_NODE = 327.2393
ARG_OF_PERICENTER = 206.2785
MEAN_ANOMALY   = 153.1310

EPHEMERIS_TYPE = 0
CLASSIFICATION_TYPE = U
NORAD_CAT_ID   = 28480
ELEMENT_SET_NO = 999
REV_AT_EPOCH   = 10600
BSTAR          = .52851E-4
MEAN_MOTION_DOT = .101E-5
MEAN_MOTION_DDOT = 0

CCSDS_OMM_VERS = 2.0
CREATION_DATE  = 
ORIGINATOR     = 

OBJECT_NAME    = ARIANE 5 R/B
OBJECT_ID      = 2004-049H
CENTER_NAME    = EARTH
REF_FRAME      = TEME
TIME_SYSTEM    = UTC
MEAN_ELEMENT_THEORY = SGP/SGP4

EPOCH          = 2026-02-20T01:11:02.602752
MEAN_MOTION    = 14.85229355
ECCENTRICITY   = .0085105
INCLINATION    = 98.2596
RA_OF_ASC_NODE = 218.8496
ARG_OF_PERICENTER = 48.8623
MEAN_ANOMALY   = 311.9895

EPHEMERIS_TYPE = 0
CLASSIFICATION_TYPE = U
NORAD_CAT_ID   = 28499
ELEMENT_SET_NO = 999
REV_AT_EPOCH   = 14317
BSTAR          = .88109E-4
MEAN_MOTION_DOT = .742E-5
MEAN_MOTION_DDOT = 0

CCSDS_OMM_VERS = 2.0
CREATION_DATE  = 
ORIGINATOR     = 

OBJECT_NAME    = CZ-2D R/B
OBJECT_ID      = 2005-024B
CENTER_NAME    = EARTH
REF_FRAME      = TEME
TIME_SYSTEM    = UTC
MEAN_ELEMENT_THEORY = SGP/SGP4

EPOCH          = 2026-02-19T23:55:47.858016
MEAN_MOTION    = 15.58492962
ECCENTRICITY   = .0007624
INCLINATION    = 97.3605
RA_OF_ASC_NODE = 65.5168
ARG_OF_PERICENTER = 89.1305
MEAN_ANOMALY   = 271.0825

EPHEMERIS_TYPE = 0
CLASSIFICATION_TYPE = U
NORAD_CAT_ID   = 28738
ELEMENT_SET_NO = 999
REV_AT_EPOCH   = 13702
BSTAR          = .46657E-3
MEAN_MOTION_DOT = .35637E-3
MEAN_MOTION_DDOT = 0

